{"fetched_at":"2026-06-15T17:14:21Z","count":8051,"tles":[{"name":"TITAN 4B R/B","line1":"1 26474U 00047B   26166.13958303  .00002587  00000+0  16261-3 0  9997","line2":"2 26474  67.9878 126.3365 0045685 289.2929  70.3282 15.10186555407623","category":"Other"},{"name":"CZ-2C R/B","line1":"1 28222U 04012C   26166.19535016  .00083953  00000+0  47830-3 0  9996","line2":"2 28222  97.7094 241.6267 0009181 291.9610  68.0680 15.78647090219589","category":"Other"},{"name":"SL-16 R/B","line1":"1 24298U 96051B   26166.19004948  .00000107  00000+0  84406-4 0  9995","line2":"2 24298  70.7640 328.8755 0015305 339.8928  20.1586 14.12445217535416","category":"Other"},{"name":"DELTA 2 R/B","line1":"1 25876U 99041E   26165.55655418  .00000725  00000+0  15449-3 0  9999","line2":"2 25876  51.7658 274.3052 0500857 274.2393  80.1479 14.12012204376710","category":"Other"},{"name":"H-2A R/B","line1":"1 28932U 06002B   26166.14299656  .00005131  00000+0  24822-3 0  9995","line2":"2 28932  98.2556 321.7868 0049559 269.4517  90.1035 15.18037657109216","category":"Other"},{"name":"SL-16 R/B","line1":"1 25400U 98043G   26166.11772855  .00000025  00000+0  29462-4 0  9995","line2":"2 25400  98.8363 120.2591 0010934  91.7201 268.5231 14.26068279452875","category":"Other"},{"name":"ARIANE 5 R/B","line1":"1 28499U 04049H   26165.97472375  .00000576  00000+0  69738-4 0  9997","line2":"2 28499  98.2719 338.1423 0084649  36.5368 324.1580 14.85446411160239","category":"Other"},{"name":"CZ-2C R/B","line1":"1 31114U 07010B   26166.15781799  .00000061  00000+0  46978-4 0  9990","line2":"2 31114  98.4096 274.6079 0059143  12.0183 348.2390 14.20275804993553","category":"Other"},{"name":"MIDORI II (ADEOS-II)","line1":"1 27597U 02056A   26166.17802016  .00000204  00000+0  98033-4 0  9991","line2":"2 27597  98.7878 125.4207 0002215  79.7815 280.3616 14.29348609224221","category":"Other"},{"name":"H-2A R/B","line1":"1 27601U 02056E   26166.11778221  .00000148  00000+0  66485-4 0  9994","line2":"2 27601  98.3311 122.8677 0069095 230.8133 139.3795 14.33821225228072","category":"Other"},{"name":"CZ-4B R/B","line1":"1 25732U 99025C   26166.09081671  .00000051  00000+0  44988-4 0  9999","line2":"2 25732  98.6484 207.9820 0038141  65.5243 348.5871 14.18283098401971","category":"Other"},{"name":"RESURS-DK 1","line1":"1 29228U 06021A   26165.92005308  .00002367  00000+0  13900-3 0  9992","line2":"2 29228  69.9340 345.4214 0006841 293.4121  66.6326 15.13210348102235","category":"Other"},{"name":"IDEFIX & ARIANE 42P R/B","line1":"1 27422U 02021B   26166.10197166  .00000170  00000+0  80997-4 0  9998","line2":"2 27422  98.5944 103.6076 0010565 260.7692  99.2296 14.31081220257957","category":"Other"},{"name":"SL-16 R/B","line1":"1 25407U 98045B   26165.90503263 -.00000233  00000+0 -93254-4 0  9998","line2":"2 25407  71.0119 337.1294 0009495 244.3390 115.6753 14.16204044440866","category":"Other"},{"name":"ISS (ZARYA)","line1":"1 25544U 98067A   26166.18985271  .00007715  00000+0  14683-3 0  9996","line2":"2 25544  51.6338 309.9786 0004835 187.9159 172.1754 15.49238068571444","category":"ISS"},{"name":"TERRA","line1":"1 25994U 99068A   26166.16986764  .00000325  00000+0  75084-4 0  9996","line2":"2 25994  97.9457 215.7960 0001427 197.0393 231.2884 14.61101583409313","category":"Other"},{"name":"AQUA","line1":"1 27424U 02022A   26166.19687691  .00000662  00000+0  14146-3 0  9995","line2":"2 27424  98.4276 135.4399 0001179  53.3370 317.2643 14.62155456282984","category":"Other"},{"name":"ENVISAT","line1":"1 27386U 02009A   26166.15351919  .00000062  00000+0  33805-4 0  9992","line2":"2 27386  98.3834 117.5172 0001337  89.0503 281.6541 14.39064359273199","category":"Other"},{"name":"ORBVIEW 2 (SEASTAR)","line1":"1 24883U 97037A   26166.06839595  .00000168  00000+0  74490-4 0  9999","line2":"2 24883  98.8685 333.0287 0003145 120.2279 239.9217 14.35552322522445","category":"Other"},{"name":"CZ-4B R/B","line1":"1 27432U 02024C   26166.11722387  .00000042  00000+0  44320-4 0  9990","line2":"2 27432  98.8701 218.9509 0051177 105.9834 309.3801 14.14564054243016","category":"Other"},{"name":"ALOS (DAICHI)","line1":"1 28931U 06002A   26166.11661330  .00000921  00000+0  16168-3 0  9999","line2":"2 28931  98.1323 121.6904 0001532  58.0865 302.0490 14.70046562 87791","category":"Other"},{"name":"OKEAN-O","line1":"1 25860U 99039A   26166.18475083  .00000508  00000+0  73267-4 0  9999","line2":"2 25860  97.9318 225.0056 0001670  73.5258 286.6137 14.80464977448812","category":"Other"},{"name":"SL-16 R/B","line1":"1 25861U 99039B   26166.14086419  .00000436  00000+0  61938-4 0  9999","line2":"2 25861  97.9839 225.0097 0013563 304.1618  55.8308 14.81843453451296","category":"Other"},{"name":"SL-16 R/B","line1":"1 26070U 00006B   26165.94566736 -.00000165  00000+0 -59309-4 0  9990","line2":"2 26070  71.0022 253.3382 0015426  26.4040 333.7866 14.15834281362328","category":"Other"}]}