OBJECT_NAME,OBJECT_ID,EPOCH,MEAN_MOTION,ECCENTRICITY,INCLINATION,RA_OF_ASC_NODE,ARG_OF_PERICENTER,MEAN_ANOMALY,EPHEMERIS_TYPE,CLASSIFICATION_TYPE,NORAD_CAT_ID,ELEMENT_SET_NO,REV_AT_EPOCH,BSTAR,MEAN_MOTION_DOT,MEAN_MOTION_DDOT
SL-16 R/B,1996-051B,2026-06-15T04:33:40.275072,14.12445217,.0015305,70.7640,328.8755,339.8928,20.1586,0,U,24298,999,53541,.84406E-4,.107E-5,0
ORBVIEW 2 (SEASTAR),1997-037A,2026-06-15T01:38:29.410080,14.35552322,.0003145,98.8685,333.0287,120.2279,239.9217,0,U,24883,999,52244,.7449E-4,.168E-5,0
SL-16 R/B,1998-043G,2026-06-15T02:49:31.746720,14.26068279,.0010934,98.8363,120.2591,91.7201,268.5231,0,U,25400,999,45287,.29462E-4,.25E-6,0
SL-16 R/B,1998-045B,2026-06-14T21:43:14.819232,14.16204044,.0009495,71.0119,337.1294,244.3390,115.6753,0,U,25407,999,44086,-.93254E-4,-.233E-5,0
ISS (ZARYA),1998-067A,2026-06-15T04:33:23.274144,15.49238068,.0004835,51.6338,309.9786,187.9159,172.1754,0,U,25544,999,57144,.14683E-3,.7715E-4,0
CZ-4B R/B,1999-025C,2026-06-15T02:10:46.563744,14.18283098,.0038141,98.6484,207.9820,65.5243,348.5871,0,U,25732,999,40197,.44988E-4,.51E-6,0
OKEAN-O,1999-039A,2026-06-15T04:26:02.471712,14.80464977,.000167,97.9318,225.0056,73.5258,286.6137,0,U,25860,999,44881,.73267E-4,.508E-5,0
SL-16 R/B,1999-039B,2026-06-15T03:22:50.666016,14.81843453,.0013563,97.9839,225.0097,304.1618,55.8308,0,U,25861,999,45129,.61938E-4,.436E-5,0
DELTA 2 R/B,1999-041E,2026-06-14T13:21:26.281152,14.12012204,.05008571,51.7658,274.3052,274.2393,80.1479,0,U,25876,999,37671,.15448724E-3,.725E-5,0
TERRA,1999-068A,2026-06-15T04:04:36.564096,14.61101583,.0001427,97.9457,215.7960,197.0393,231.2884,0,U,25994,999,40931,.75084E-4,.325E-5,0
SL-16 R/B,2000-006B,2026-06-14T22:41:45.659904,14.15834281,.0015426,71.0022,253.3382,26.4040,333.7866,0,U,26070,999,36232,-.59309E-4,-.165E-5,0
TITAN 4B R/B,2000-047B,2026-06-15T03:20:59.973792,15.10186555,.0045685,67.9878,126.3365,289.2929,70.3282,0,U,26474,999,40762,.16261E-3,.2587E-4,0
ENVISAT,2002-009A,2026-06-15T03:41:04.058016,14.39064359,.0001337,98.3834,117.5172,89.0503,281.6541,0,U,27386,999,27319,.33805E-4,.62E-6,0
IDEFIX & ARIANE 42P R/B,2002-021B,2026-06-15T02:26:50.351424,14.31081220,.0010565,98.5944,103.6076,260.7692,99.2296,0,U,27422,999,25795,.80997E-4,.17E-5,0
AQUA,2002-022A,2026-06-15T04:43:30.165024,14.62155456,.0001179,98.4276,135.4399,53.3370,317.2643,0,U,27424,999,28298,.14146E-3,.662E-5,0
CZ-4B R/B,2002-024C,2026-06-15T02:48:48.142368,14.14564054,.0051177,98.8701,218.9509,105.9834,309.3801,0,U,27432,999,24301,.4432E-4,.42E-6,0
MIDORI II (ADEOS-II),2002-056A,2026-06-15T04:16:20.941824,14.29348609,.0002215,98.7878,125.4207,79.7815,280.3616,0,U,27597,999,22422,.98033E-4,.204E-5,0
H-2A R/B,2002-056E,2026-06-15T02:49:36.382944,14.33821225,.0069095,98.3311,122.8677,230.8133,139.3795,0,U,27601,999,22807,.66485E-4,.148E-5,0
CZ-2C R/B,2004-012C,2026-06-15T04:41:18.253824,15.78647090,.0009181,97.7094,241.6267,291.9610,68.0680,0,U,28222,999,21958,.4783E-3,.83953E-3,0
ARIANE 5 R/B,2004-049H,2026-06-14T23:23:36.132000,14.85446411,.0084649,98.2719,338.1423,36.5368,324.1580,0,U,28499,999,16023,.69738E-4,.576E-5,0
ALOS (DAICHI),2006-002A,2026-06-15T02:47:55.389120,14.70046562,.0001532,98.1323,121.6904,58.0865,302.0490,0,U,28931,999,8779,.16168E-3,.921E-5,0
H-2A R/B,2006-002B,2026-06-15T03:25:54.902784,15.18037657,.0049559,98.2556,321.7868,269.4517,90.1035,0,U,28932,999,10921,.24822E-3,.5131E-4,0
RESURS-DK 1,2006-021A,2026-06-14T22:04:52.586112,15.13210348,.0006841,69.9340,345.4214,293.4121,66.6326,0,U,29228,999,10223,.139E-3,.2367E-4,0
CZ-2C R/B,2007-010B,2026-06-15T03:47:15.474336,14.20275804,.0059143,98.4096,274.6079,12.0183,348.2390,0,U,31114,999,99355,.46978E-4,.61E-6,0
